{
  "type": "FeatureCollection",
  "features": [
    {
      "type": "Feature",
      "properties": {
        "norad_id": 32376,
        "name": "COSMO-SKYMED 2",
        "group": "resource",
        "lat": -12.724108221403174,
        "lon": -5.357100599860143,
        "alt_km": 627.3912373821686,
        "timestamp": "2025-12-21T05:44:51.232414+00:00",
        "meta_object_name": "COSMO-SKYMED 2",
        "meta_object_id": "2007-059A",
        "meta_epoch": "2025-12-20T22:23:59.324928",
        "meta_mean_motion": 14.8215176,
        "meta_eccentricity": 0.00013473,
        "meta_inclination": 97.8804,
        "meta_ra_of_asc_node": 176.1337,
        "meta_arg_of_pericenter": 83.1708,
        "meta_mean_anomaly": 276.9659,
        "meta_ephemeris_type": 0,
        "meta_classification_type": "U",
        "meta_norad_cat_id": 32376,
        "meta_element_set_no": 999,
        "meta_rev_at_epoch": 97559,
        "meta_bstar": 5.1177759e-05,
        "meta_mean_motion_dot": 3.55e-06,
        "meta_mean_motion_ddot": 0,
        "tle_line1": "1 32376U 07059A   25354.93332552  .00000355  00000+0  51178-4 0  9991",
        "tle_line2": "2 32376  97.8804 176.1337 0001347  83.1708 276.9659 14.82151760975593"
      },
      "geometry": {
        "type": "Point",
        "coordinates": [
          -5.357100599860143,
          -12.724108221403174
        ]
      }
    },
    {
      "type": "Feature",
      "properties": {
        "norad_id": 32382,
        "name": "RADARSAT-2",
        "group": "resource",
        "lat": -12.004704796516862,
        "lon": 1.5454668939558707,
        "alt_km": 796.240952024239,
        "timestamp": "2025-12-21T05:44:51.232424+00:00",
        "meta_object_name": "RADARSAT-2",
        "meta_object_id": "2007-061A",
        "meta_epoch": "2025-12-20T23:05:13.233408",
        "meta_mean_motion": 14.29983502,
        "meta_eccentricity": 0.00011291,
        "meta_inclination": 98.579,
        "meta_ra_of_asc_node": 359.4325,
        "meta_arg_of_pericenter": 85.8176,
        "meta_mean_anomaly": 274.3136,
        "meta_ephemeris_type": 0,
        "meta_classification_type": "U",
        "meta_norad_cat_id": 32382,
        "meta_element_set_no": 999,
        "meta_rev_at_epoch": 94048,
        "meta_bstar": -2.9849341e-05,
        "meta_mean_motion_dot": -1.21e-06,
        "meta_mean_motion_ddot": 0,
        "tle_line1": "1 32382U 07061A   25354.96195872 -.00000121  00000+0 -29849-4 0  9999",
        "tle_line2": "2 32382  98.5790 359.4325 0001129  85.8176 274.3136 14.29983502940481"
      },
      "geometry": {
        "type": "Point",
        "coordinates": [
          1.5454668939558707,
          -12.004704796516862
        ]
      }
    },
    {
      "type": "Feature",
      "properties": {
        "norad_id": 32783,
        "name": "CARTOSAT-2A",
        "group": "resource",
        "lat": -53.55640680775844,
        "lon": -145.88924773341577,
        "alt_km": 641.3879013034466,
        "timestamp": "2025-12-21T05:44:51.232434+00:00",
        "meta_object_name": "CARTOSAT-2A",
        "meta_object_id": "2008-021A",
        "meta_epoch": "2025-12-20T22:11:45.186720",
        "meta_mean_motion": 14.78950711,
        "meta_eccentricity": 0.00112096,
        "meta_inclination": 97.7923,
        "meta_ra_of_asc_node": 44.4929,
        "meta_arg_of_pericenter": 338.0558,
        "meta_mean_anomaly": 22.0172,
        "meta_ephemeris_type": 0,
        "meta_classification_type": "U",
        "meta_norad_cat_id": 32783,
        "meta_element_set_no": 999,
        "meta_rev_at_epoch": 95245,
        "meta_bstar": 8.2012663e-05,
        "meta_mean_motion_dot": 5.55e-06,
        "meta_mean_motion_ddot": 0,
        "tle_line1": "1 32783U 08021A   25354.92482855  .00000555  00000+0  82013-4 0  9998",
        "tle_line2": "2 32783  97.7923  44.4929 0011209 338.0558  22.0172 14.78950711952451"
      },
      "geometry": {
        "type": "Point",
        "coordinates": [
          -145.88924773341577,
          -53.55640680775844
        ]
      }
    },
    {
      "type": "Feature",
      "properties": {
        "norad_id": 33320,
        "name": "HUANJING 1A (HJ-1A)",
        "group": "resource",
        "lat": -55.144919471260955,
        "lon": 152.05004640571528,
        "alt_km": 634.6712432042077,
        "timestamp": "2025-12-21T05:44:51.232445+00:00",
        "meta_object_name": "HUANJING 1A (HJ-1A)",
        "meta_object_id": "2008-041A",
        "meta_epoch": "2025-12-20T22:12:41.516928",
        "meta_mean_motion": 14.83417427,
        "meta_eccentricity": 0.00195178,
        "meta_inclination": 97.6536,
        "meta_ra_of_asc_node": 342.8819,
        "meta_arg_of_pericenter": 8.468,
        "meta_mean_anomaly": 351.686,
        "meta_ephemeris_type": 0,
        "meta_classification_type": "U",
        "meta_norad_cat_id": 33320,
        "meta_element_set_no": 999,
        "meta_rev_at_epoch": 93197,
        "meta_bstar": 0.00014193845,
        "meta_mean_motion_dot": 1.117e-05,
        "meta_mean_motion_ddot": 0,
        "tle_line1": "1 33320U 08041A   25354.92548052  .00001117  00000+0  14194-3 0  9999",
        "tle_line2": "2 33320  97.6536 342.8819 0019517   8.4680 351.6860 14.83417427931972"
      },
      "geometry": {
        "type": "Point",
        "coordinates": [
          152.05004640571528,
          -55.144919471260955
        ]
      }
    },
    {
      "type": "Feature",
      "properties": {
        "norad_id": 33321,
        "name": "HUANJING 1B (HJ-1B)",
        "group": "resource",
        "lat": 77.20312037165328,
        "lon": -49.36543975701814,
        "alt_km": 590.248383978902,
        "timestamp": "2025-12-21T05:44:51.232455+00:00",
        "meta_object_name": "HUANJING 1B (HJ-1B)",
        "meta_object_id": "2008-041B",
        "meta_epoch": "2025-12-20T22:54:50.088096",
        "meta_mean_motion": 14.82842697,
        "meta_eccentricity": 0.00379964,
        "meta_inclination": 97.6396,
        "meta_ra_of_asc_node": 346.5856,
        "meta_arg_of_pericenter": 49.8273,
        "meta_mean_anomaly": 310.6258,
        "meta_ephemeris_type": 0,
        "meta_classification_type": "U",
        "meta_norad_cat_id": 33321,
        "meta_element_set_no": 999,
        "meta_rev_at_epoch": 93199,
        "meta_bstar": 0.00016256156,
        "meta_mean_motion_dot": 1.281e-05,
        "meta_mean_motion_ddot": 0,
        "tle_line1": "1 33321U 08041B   25354.95474639  .00001281  00000+0  16256-3 0  9995",
        "tle_line2": "2 33321  97.6396 346.5856 0037996  49.8273 310.6258 14.82842697931995"
      },
      "geometry": {
        "type": "Point",
        "coordinates": [
          -49.36543975701814,
          77.20312037165328
        ]
      }
    },
    {
      "type": "Feature",
      "properties": {
        "norad_id": 33331,
        "name": "GEOEYE 1",
        "group": "resource",
        "lat": -52.38861710174805,
        "lon": -124.27252041375726,
        "alt_km": 683.0429578641379,
        "timestamp": "2025-12-21T05:44:51.232466+00:00",
        "meta_object_name": "GEOEYE 1",
        "meta_object_id": "2008-042A",
        "meta_epoch": "2025-12-20T22:07:42.086496",
        "meta_mean_motion": 14.64710239,
        "meta_eccentricity": 0.00028307,
        "meta_inclination": 98.1243,
        "meta_ra_of_asc_node": 66.0995,
        "meta_arg_of_pericenter": 249.0579,
        "meta_mean_anomaly": 111.0321,
        "meta_ephemeris_type": 0,
        "meta_classification_type": "U",
        "meta_norad_cat_id": 33331,
        "meta_element_set_no": 999,
        "meta_rev_at_epoch": 92405,
        "meta_bstar": 8.4230938e-05,
        "meta_mean_motion_dot": 4.01e-06,
        "meta_mean_motion_ddot": 0,
        "tle_line1": "1 33331U 08042A   25354.92201489  .00000401  00000+0  84231-4 0  9997",
        "tle_line2": "2 33331  98.1243  66.0995 0002830 249.0579 111.0321 14.64710239924052"
      },
      "geometry": {
        "type": "Point",
        "coordinates": [
          -124.27252041375726,
          -52.38861710174805
        ]
      }
    },
    {
      "type": "Feature",
      "properties": {
        "norad_id": 33396,
        "name": "THEOS",
        "group": "resource",
        "lat": 13.568167284122596,
        "lon": -124.83188387630888,
        "alt_km": 825.736132321631,
        "timestamp": "2025-12-21T05:44:51.232477+00:00",
        "meta_object_name": "THEOS",
        "meta_object_id": "2008-049A",
        "meta_epoch": "2025-12-20T22:12:13.765248",
        "meta_mean_motion": 14.20098263,
        "meta_eccentricity": 0.00011859,
        "meta_inclination": 98.5862,
        "meta_ra_of_asc_node": 52.7735,
        "meta_arg_of_pericenter": 96.1755,
        "meta_mean_anomaly": 263.9557,
        "meta_ephemeris_type": 0,
        "meta_classification_type": "U",
        "meta_norad_cat_id": 33396,
        "meta_element_set_no": 999,
        "meta_rev_at_epoch": 89266,
        "meta_bstar": 7.0472094e-05,
        "meta_mean_motion_dot": 1.08e-06,
        "meta_mean_motion_ddot": 0,
        "tle_line1": "1 33396U 08049A   25354.92515932  .00000108  00000+0  70472-4 0  9992",
        "tle_line2": "2 33396  98.5862  52.7735 0001185  96.1755 263.9557 14.20098263892664"
      },
      "geometry": {
        "type": "Point",
        "coordinates": [
          -124.83188387630888,
          13.568167284122596
        ]
      }
    }
  ]
}